{"fetched_at":"2026-03-30T20:46:33Z","count":15425,"tles":[{"name":"STARLINK-1805","line1":"1 46705U 20073AM  26087.86856455  .00075377  00000+0  10810-2 0  9994","line2":"2 46705  53.0501 151.0406 0005641 344.3163  15.7672 15.55484402300082","category":"Starlink"}]}